NORAD_CAT_ID,OBJECT_NAME,OBJECT_TYPE,EPOCH,MEAN_MOTION,ECCENTRICITY,INCLINATION,RA_OF_ASC_NODE,ARG_OF_PERICENTER,MEAN_ANOMALY,BSTAR,MEAN_MOTION_DOT,MEAN_MOTION_DDOT,TLE_LINE0,TLE_LINE1,TLE_LINE2,SEMIMAJOR_AXIS,PERIOD,APOGEE,PERIGEE,DECAYED
51124.0,STARLINK-3389,PAYLOAD,2022-08-15 19:29:22,15.08842701,0.0001728,53.2196,23.4795,59.6271,300.4892,0.00010131,1.325e-05,0.0,0 STARLINK-3389,1 51124U 22005W   22227.81206747  .00001325  00000-0  10131-3 0  9992,2 51124  53.2196  23.4795 0001728  59.6271 300.4892 15.08842701 32208,6917.871999999999,95.437,540.933,538.5419999999998,0.0
51124.0,STARLINK-3389,PAYLOAD,2022-08-16 03:26:18,15.08837871,0.0001737,53.2197,21.9939,65.3507,294.7666,4.4821e-05,4.25e-06,0.0,0 STARLINK-3389,1 51124U 22005W   22228.14326989  .00000425  00000-0  44821-4 0  9994,2 51124  53.2197  21.9939 0001737  65.3507 294.7666 15.08837871 33362,6917.887,95.438,540.9540000000002,538.55,0.0
51124.0,STARLINK-3389,PAYLOAD,2022-08-16 12:58:37,15.08846101,0.0001721999999999,53.2194,20.2084,66.0222,294.095,0.00018742,2.696e-05,0.0,0 STARLINK-3389,1 51124U 22005W   22228.54070715  .00002696  00000-0  18742-3 0  9995,2 51124  53.2194  20.2084 0001722  66.0222 294.0950 15.08846101 32317,6917.861999999999,95.437,540.918,538.535,0.0
51124.0,STARLINK-3389,PAYLOAD,2022-08-16 17:44:46,15.08848114,0.0001725,53.2193,19.3163,70.4519,289.666,0.00026253,3.893e-05,0.0,0 STARLINK-3389,1 51124U 22005W   22228.73942565  .00003893  00000-0  26253-3 0  9993,2 51124  53.2193  19.3163 0001725  70.4519 289.6660 15.08848114 32341,6917.856,95.437,540.914,538.5269999999998,0.0
51124.0,STARLINK-3389,PAYLOAD,2022-08-17 09:38:37,15.08844711,0.0001686999999999,53.2193,16.3436,65.6033,294.5135,0.00019971,2.892e-05,0.0,0 STARLINK-3389,1 51124U 22005W   22229.40182734  .00002892  00000-0  19971-3 0  9999,2 51124  53.2193  16.3436 0001687  65.6033 294.5135 15.08844711 33550,6917.866,95.437,540.898,538.564,0.0
51124.0,STARLINK-3389,PAYLOAD,2022-08-17 12:49:24,15.08842787,0.0001641,53.2194,15.7485,70.2026,289.9143,0.00012385,1.684e-05,0.0,0 STARLINK-3389,1 51124U 22005W   22229.53430818  .00001684  00000-0  12385-3 0  9992,2 51124  53.2194  15.7485 0001641  70.2026 289.9143 15.08842787 32469,6917.871999999999,95.437,540.872,538.602,0.0
51124.0,STARLINK-3389,PAYLOAD,2022-08-18 12:40:11,15.08842511,0.0001575,53.22,11.2885,69.0292,291.0869,0.00011456,1.536e-05,0.0,0 STARLINK-3389,1 51124U 22005W   22230.52790814  .00001536  00000-0  11456-3 0  9992,2 51124  53.2200  11.2885 0001575  69.0292 291.0869 15.08842511 32610,6917.873000000001,95.437,540.827,538.648,0.0
51124.0,STARLINK-3389,PAYLOAD,2022-08-18 17:26:20,15.08844413,0.0001503,53.22,10.3964,68.9017,291.2136,9.0952e-05,1.16e-05,0.0,0 STARLINK-3389,1 51124U 22005W   22230.72662642  .00001160  00000-0  90952-4 0  9993,2 51124  53.2200  10.3964 0001503  68.9017 291.2136 15.08844413 33750,6917.8669999999975,95.437,540.7719999999998,538.692,0.0
51124.0,STARLINK-3389,PAYLOAD,2022-08-19 12:30:57,15.08845353,0.0001517,53.2203,6.8286,68.8606,291.2549,0.00014656,2.046e-05,0.0,0 STARLINK-3389,1 51124U 22005W   22231.52150349  .00002046  00000-0  14656-3 0  9998,2 51124  53.2203   6.8286 0001517  68.8606 291.2549 15.08845353 32760,6917.864000000001,95.437,540.778,538.68,0.0
51124.0,STARLINK-3389,PAYLOAD,2022-08-19 20:27:54,15.0883264,0.0001501999999999,53.2201,5.3419,65.312,294.8028,-5.520600000000001e-05,-1.166e-05,0.0,0 STARLINK-3389,1 51124U 22005W   22231.85271020 -.00001166  00000-0 -55206-4 0  9995,2 51124  53.2201   5.3419 0001502  65.3120 294.8028 15.08832640 33922,6917.903,95.438,540.807,538.729,0.0
51124.0,STARLINK-3389,PAYLOAD,2022-08-20 10:46:23,15.08827522,0.0001476,53.2208,2.6660000000000004,62.5003,297.6139,-4.2469e-06,-3.55e-06,0.0,0 STARLINK-3389,1 51124U 22005W   22232.44887781 -.00000355  00000-0 -42469-5 0  9995,2 51124  53.2208   2.6660 0001476  62.5003 297.6139 15.08827522 32900,6917.919,95.438,540.805,538.762,0.0
51124.0,STARLINK-3389,PAYLOAD,2022-08-20 18:43:19,15.088237,0.0001481,53.2208,1.1792,60.3969,299.7171,-7.3161e-05,-1.452e-05,0.0,0 STARLINK-3389,1 51124U 22005W   22232.78008417 -.00001452  00000-0 -73161-4 0  9994,2 51124  53.2208   1.1792 0001481  60.3969 299.7171 15.08823700 32951,6917.93,95.439,540.82,538.771,0.0
51124.0,STARLINK-3389,PAYLOAD,2022-08-21 12:12:33,15.0883668,0.0001457,53.2207,357.9077,61.0318,299.082,-0.00012473,-2.272e-05,0.0,0 STARLINK-3389,1 51124U 22005W   22233.50872195 -.00002272  00000-0 -12473-3 0  9996,2 51124  53.2207 357.9077 0001457  61.0318 299.0820 15.08836680 34178,6917.891,95.438,540.763,538.748,0.0
51124.0,STARLINK-3389,PAYLOAD,2022-08-21 18:34:06,15.08827988,0.000155,53.2206,356.719,60.2411,299.8735,7.9441e-05,9.76e-06,0.0,0 STARLINK-3389,1 51124U 22005W   22233.77368434  .00000976  00000-0  79441-4 0  9997,2 51124  53.2206 356.7190 0001550  60.2411 299.8735 15.08827988 33105,6917.917,95.438,540.854,538.71,0.0
51124.0,STARLINK-3389,PAYLOAD,2022-08-22 08:52:34,15.0883166,0.0001525,53.2206,354.043,60.4051,299.7093,0.00012453,1.694e-05,0.0,0 STARLINK-3389,1 51124U 22005W   22234.36984481  .00001694  00000-0  12453-3 0  9996,2 51124  53.2206 354.0430 0001525  60.4051 299.7093 15.08831660 33194,6917.906,95.438,540.826,538.716,0.0
51124.0,STARLINK-3389,PAYLOAD,2022-08-23 07:07:58,15.08840401,0.0001568,53.2204,349.8802,61.0264,299.0885,0.00017955,2.571e-05,0.0,0 STARLINK-3389,1 51124U 22005W   22235.29720054  .00002571  00000-0  17955-3 0  9990,2 51124  53.2204 349.8802 0001568  61.0264 299.0885 15.08840401 33338,6917.879,95.438,540.8290000000002,538.659,0.0
51124.0,STARLINK-3389,PAYLOAD,2022-08-24 11:44:53,15.08850489,0.0001537,53.2192,344.5269,59.5303,300.5841,6.0558e-05,6.76e-06,0.0,0 STARLINK-3389,1 51124U 22005W   22236.48951310  .00000676  00000-0  60558-4 0  9995,2 51124  53.2192 344.5269 0001537  59.5303 300.5841 15.08850489 33512,6917.848000000001,95.437,540.7769999999998,538.65,0.0
51124.0,STARLINK-3389,PAYLOAD,2022-08-24 13:20:17,15.08850649,0.0001545,53.2191,344.2295,58.2633,301.8509,6.0349e-05,6.73e-06,0.0,0 STARLINK-3389,1 51124U 22005W   22236.55575260  .00000673  00000-0  60349-4 0  9994,2 51124  53.2191 344.2295 0001545  58.2633 301.8509 15.08850649 33522,6917.848000000001,95.437,540.7819999999998,538.644,0.0
51124.0,STARLINK-3389,PAYLOAD,2022-08-25 06:49:32,15.08839211,0.0001533,53.2208,340.9601,63.8848,296.2302,-4.5296e-05,-1.009e-05,0.0,0 STARLINK-3389,1 51124U 22005W   22237.28440069 -.00001009  00000-0 -45296-4 0  9993,2 51124  53.2208 340.9601 0001533  63.8848 296.2302 15.08839211 34747,6917.8830000000025,95.438,540.808,538.687,0.0
51124.0,STARLINK-3389,PAYLOAD,2022-08-26 09:51:04,15.08842182,0.0001565999999999,53.2225,335.9072,64.9658,295.1497,1.3395999999999997e-05,-7.5e-07,0.0,0 STARLINK-3389,1 51124U 22005W   22238.41047449 -.00000075  00000-0  13396-4 0  9991,2 51124  53.2225 335.9072 0001566  64.9658 295.1497 15.08842182 33809,6917.874,95.437,540.822,538.655,0.0
51124.0,STARLINK-3389,PAYLOAD,2022-08-26 14:37:14,15.08844399,0.0001563,53.2204,335.0133,64.3657,295.7496,2.1502e-05,5.4e-07,0.0,0 STARLINK-3389,1 51124U 22005W   22238.60919236  .00000054  00000-0  21502-4 0  9998,2 51124  53.2204 335.0133 0001563  64.3657 295.7496 15.08844399 33835,6917.8669999999975,95.437,540.813,538.651,0.0
51124.0,STARLINK-3389,PAYLOAD,2022-08-27 11:17:15,15.08838773,0.0001334,53.2214,331.1487,47.4552,312.6552,2.9409000000000013e-05,1.8e-06,0.0,0 STARLINK-3389,1 51124U 22005W   22239.47031445  .00000180  00000-0  29409-4 0  9995,2 51124  53.2214 331.1487 0001334  47.4552 312.6552 15.08838773 33962,6917.884,95.438,540.672,538.826,0.0
51124.0,STARLINK-3389,PAYLOAD,2022-08-27 16:03:24,15.08837204,0.0001184,53.2206,330.2538,67.6233,292.4885,2.5789e-05,1.23e-06,0.0,0 STARLINK-3389,1 51124U 22005W   22239.66903495  .00000123  00000-0  25789-4 0  9993,2 51124  53.2206 330.2538 0001184  67.6233 292.4885 15.08837204 33998,6917.889,95.438,540.573,538.935,0.0
51124.0,STARLINK-3389,PAYLOAD,2022-08-28 12:43:23,15.08896886,0.0001333,53.2185,326.3906,46.6583,313.452,-0.00061563,-0.00010088,0.0,0 STARLINK-3389,1 51124U 22005W   22240.53013747 -.00010088  00000-0 -61563-3 0  9995,2 51124  53.2185 326.3906 0001333  46.6583 313.4520 15.08896886 34127,6917.706999999999,95.434,540.494,538.649,0.0
51124.0,STARLINK-3389,PAYLOAD,2022-08-28 15:54:10,15.08850581,0.0001551,53.2183,325.7957,52.2776,307.8357,1.4067e-05,-6.4e-07,0.0,0 STARLINK-3389,1 51124U 22005W   22240.66262691 -.00000064  00000-0  14067-4 0  9993,2 51124  53.2183 325.7957 0001551  52.2776 307.8357 15.08850581 35255,6917.848000000001,95.437,540.786,538.64,0.0
51124.0,STARLINK-3389,PAYLOAD,2022-08-29 04:37:17,15.08830186,0.0001541999999999,53.2181,323.4165,55.1251,304.9886,2.2426e-05,6.9e-07,0.0,0 STARLINK-3389,1 51124U 22005W   22241.19255848  .00000069  00000-0  22426-4 0  9990,2 51124  53.2181 323.4165 0001542  55.1251 304.9886 15.08830186 35332,6917.91,95.438,540.842,538.7090000000002,0.0
51124.0,STARLINK-3389,PAYLOAD,2022-08-29 10:58:50,15.08825407,0.0001565999999999,53.2182,322.2268,55.0332,305.0807,-2.0448e-05,-6.13e-06,0.0,0 STARLINK-3389,1 51124U 22005W   22241.45752513 -.00000613  00000-0 -20448-4 0  9999,2 51124  53.2182 322.2268 0001566  55.0332 305.0807 15.08825407 34265,6917.925,95.438,540.873,538.707,0.0
51124.0,STARLINK-3389,PAYLOAD,2022-08-29 15:44:59,15.08825936,0.0001582,53.2181,321.3347,55.2238,304.8902,-1.6307e-05,-5.47e-06,0.0,0 STARLINK-3389,1 51124U 22005W   22241.65624632 -.00000547  00000-0 -16307-4 0  9996,2 51124  53.2181 321.3347 0001582  55.2238 304.8902 15.08825936 35404,6917.9230000000025,95.438,540.883,538.694,0.0
51124.0,STARLINK-3389,PAYLOAD,2022-08-30 12:25:00,15.08836794,0.0001626999999999,53.2181,317.4691,55.8837,304.2309,-1.2977e-05,-4.95e-06,0.0,0 STARLINK-3389,1 51124U 22005W   22242.51736445 -.00000495  00000-0 -12977-4 0  9999,2 51124  53.2181 317.4691 0001627  55.8837 304.2309 15.08836794 34423,6917.89,95.438,540.881,538.63,0.0
